******************************************************************************* Revised: Jan 23, 2020            Rhea  / (Saturn)                          605                        http://ssd.jpl.nasa.gov/?sat_phys_par                         http://ssd.jpl.nasa.gov/?sat_elem SATELLITE PHYSICAL PROPERTIES:  Mean Radius (km)        = 764.5  +- 2     Density (g/cm^3)  =  1.233 +- 0.010  Mass (10^19 kg)         = 230.9           Geometric Albedo  =  0.6  GM (km^3/s^2)           = 153.94 +- 0.16  V(1,0)            = +0.1 SATELLITE ORBITAL DATA (mean values referred to local Laplace plane):  Semi-major axis, a (km) = 527.07(10^3)    Orbital period    = 4.518 d  Eccentricity, e         = 0.001           Rotational period = Synchronous  Inclination, i  (deg)   = 0.331*******************************************************************************  *******************************************************************************Ephemeris / WWW_USER Fri Jan 29 14:23:41 2021 Pasadena, USA      / Horizons*******************************************************************************Target body name: Rhea (605)                      {source: sat427l_merged_DE438}Center body name: Solar System Barycenter (0)     {source: DE431mx}Center-site name: BODY CENTER*******************************************************************************Start time      : A.D. 2021-Jan-01 00:00:00.0000 TDBStop  time      : A.D. 2021-Jan-02 00:00:00.0000 TDBStep-size       : 1440 minutes*******************************************************************************Center geodetic : 0.00000000,0.00000000,0.0000000 {E-lon(deg),Lat(deg),Alt(km)}Center cylindric: 0.00000000,0.00000000,0.0000000 {E-lon(deg),Dxy(km),Dz(km)}Center radii    : (undefined)                                                  Output units    : KM-SOutput type     : GEOMETRIC cartesian statesOutput format   : 2 (position and velocity)Reference frame : Ecliptic of J2000.0*******************************************************************************            JDTDB,            Calendar Date (TDB),                      X,                      Y,                      Z,                     VX,                     VY,                     VZ,**************************************************************************************************************************************************************************************************$$SOE2459215.500000000, A.D. 2021-Jan-01 00:00:00.0000,  8.198422401058140E+08, -1.246929265024358E+09, -1.100155246895349E+07,  5.407033075234315E+00, -1.905371635938290E+00,  3.562185651241816E+00,2459216.500000000, A.D. 2021-Jan-02 00:00:00.0000,  8.207799694417517E+08, -1.247024012714168E+09, -1.077281083789426E+07,  1.519775045152027E+01,  1.837977884592926E+00,  7.201880077554735E-01,$$EOE**************************************************************************************************************************************************************************************************Coordinate system description:  Ecliptic at the standard reference epoch    Reference epoch: J2000.0    X-Y plane: adopted Earth orbital plane at the reference epoch               Note: obliquity of 84381.448 arcseconds (IAU76) wrt ICRF equator    X-axis   : ICRF    Z-axis   : perpendicular to the X-Y plane in the directional (+ or -) sense               of Earth's north pole at the reference epoch.  Symbol meaning:    JDTDB    Julian Day Number, Barycentric Dynamical Time      X      X-component of position vector (km)      Y      Y-component of position vector (km)      Z      Z-component of position vector (km)      VX     X-component of velocity vector (km/sec)                                 VY     Y-component of velocity vector (km/sec)                                 VZ     Z-component of velocity vector (km/sec)                           Geometric states/elements have no aberrations applied. Computations by ...     Solar System Dynamics Group, Horizons On-Line Ephemeris System     4800 Oak Grove Drive, Jet Propulsion Laboratory     Pasadena, CA  91109   USA     Information  : https://ssd.jpl.nasa.gov/     Documentation: https://ssd.jpl.nasa.gov/?horizons_doc     Connect      : https://ssd.jpl.nasa.gov/?horizons (browser)                    telnet ssd.jpl.nasa.gov 6775       (command-line)                    e-mail command interface available                    Script and CGI interfaces available     Author       : Jon.D.Giorgini@jpl.nasa.gov*******************************************************************************